LEMUR-2-PETERG          
1 42841U 17042S   26068.48235713  .00023240  00000+0  81076-3 0  9993
2 42841  97.3980 253.6596 0003700 341.6938  18.4169 15.29611459473171
STARLINK-34902          
1 65326U 25189D   26068.61374989  .00027084  00000+0  92347-3 0  9994
2 65326  53.1578 207.2057 0001031  75.6087 284.5028 15.30191534 31098
